2025-155V               
1 64895U 25155V   26068.85787115  .00013705  00000+0  51002-3 0  9990
2 64895  97.4485  37.2490 0008035 152.8264 207.3397 15.27583301 65579
STARLINK-36420          
1 67347U 26003P   26068.50054338  .00027877  00000+0  10183-2 0  9993
2 67347  43.0005 228.2450 0001566 255.7732 104.2945 15.27592799  8798
